GLOBALSTAR M069         
1 31573U 07020C   26169.93172220 -.00000071  00000+0  20260-3 0  9999
2 31573  52.0022 247.1894 0002301 151.7655  19.5337 12.23471370879016
GLOBALSTAR M072         
1 31574U 07020D   26169.80642319 -.00000098  00000+0 -19753-3 0  9992
2 31574  51.9933  95.9343 0001430 336.4297  57.7514 11.91658336875177
GLOBALSTAR M066         
1 32265U 07048C   26169.93359091 -.00000142  00000+0 -40228-3 0  9997
2 32265  51.9605  52.8989 0005523  47.7061 325.3185 12.30387424860440
GLOBALSTAR M079         
1 37188U 10054A   26169.96062418 -.00000094  00000+0  52002-4 0  9993
2 37188  52.0036 103.2706 0000756  28.5741  46.8621 12.62266116722774
GLOBALSTAR M074         
1 37189U 10054B   26169.98771181 -.00000102  00000+0  89247-5 0  9992
2 37189  52.0012 102.4526 0000585  54.2228  24.6135 12.62268357723387
GLOBALSTAR M076         
1 37190U 10054C   26169.55922839 -.00000102  00000+0  10261-4 0  9994
2 37190  52.0023 103.9603 0000761  45.0201 125.8107 12.62261834723047
GLOBALSTAR M077         
1 37191U 10054D   26169.77513363 -.00000093  00000+0 -28265-3 0  9999
2 37191  51.9919 175.2653 0002700 175.3326 355.4146 11.67547805721329
GLOBALSTAR M075         
1 37192U 10054E   26169.65134377 -.00000120  00000+0 -90478-4 0  9998
2 37192  51.9923 145.7340 0000208  23.5628 145.9953 12.62267354722121
GLOBALSTAR M073         
1 37193U 10054F   26169.41442708 -.00000074  00000+0  16790-3 0  9994
2 37193  52.0068  60.5565 0000956  50.6685 120.2585 12.62266509724086
GLOBALSTAR M083         
1 37739U 11033A   26169.97869352 -.00000086  00000+0  99082-4 0  9996
2 37739  51.9875   7.0653 0000946  69.6955  88.0451 12.62263228693172
GLOBALSTAR M088         
1 37740U 11033B   26169.79836076 -.00000076  00000+0  15471-3 0  9993
2 37740  52.0216 274.0478 0000672 129.6168  46.6303 12.62268818688692
GLOBALSTAR M091         
1 37741U 11033C   26169.96843964 -.00000090  00000+0  77202-4 0  9994
2 37741  51.9988 236.4933 0000260 157.1661  13.2773 12.62264017689501
GLOBALSTAR M085         
1 37742U 11033D   26169.79707203 -.00000115  00000+0 -60747-4 0  9996
2 37742  52.0097 188.3073 0000149 308.9939 222.4340 12.62264160689991
GLOBALSTAR M081         
1 37743U 11033E   26169.31360899 -.00000102  00000+0  99747-5 0  9999
2 37743  51.9932 192.2140 0000106  88.4525 284.6275 12.62265121690088
GLOBALSTAR M089         
1 37744U 11033F   26169.70458934 -.00000113  00000+0 -53179-4 0  9992
2 37744  51.9908 145.1809 0000376  81.7259  89.7801 12.62267242690973
GLOBALSTAR M084         
1 38040U 11080A   26169.84140007 -.00000097  00000+0  35733-4 0  9994
2 38040  52.0027  12.2462 0001095  88.2196 285.2134 12.62267575668973
GLOBALSTAR M080         
1 38041U 11080B   26169.89195243 -.00000091  00000+0  72384-4 0  9999
2 38041  52.0077  13.8110 0000394  70.9316 302.3842 12.62269454669100
GLOBALSTAR M082         
1 38042U 11080C   26169.76910109 -.00000082  00000+0  12240-3 0  9996
2 38042  52.0100 329.6865 0000521 100.7285   4.0638 12.62263739669796
GLOBALSTAR M092         
1 38043U 11080D   26169.96029562 -.00000088  00000+0  89005-4 0  9993
2 38043  52.0094  59.5009 0000729  65.8746 307.1936 12.62267026668274
GLOBALSTAR M090         
1 38044U 11080E   26169.69662729 -.00000100  00000+0  22691-4 0  9995
2 38044  52.0141 323.8630 0000784  93.7142 280.6330 12.62269052669901
GLOBALSTAR M086         
1 38045U 11080F   26169.71806583 -.00000087  00000+0  92109-4 0  9992
2 38045  51.9916 323.7253 0001690  70.3350 302.5717 12.62286778669850
GLOBALSTAR M097         
1 39072U 13005A   26169.90495957 -.00000093  00000+0  58630-4 0  9990
2 39072  52.0038 238.1086 0000253 126.9260 233.1630 12.62247278617121
GLOBALSTAR M093         
1 39073U 13005B   26169.87814986 -.00000094  00000+0  56803-4 0  9995
2 39073  52.0094 231.5369 0000179  82.2199 277.8689 12.62266006617070
GLOBALSTAR M094         
1 39074U 13005C   26169.64048886 -.00000125  00000+0 -11745-3 0  9990
2 39074  51.9931 146.3735 0000450   7.1136 352.9737 12.62268541618658
GLOBALSTAR M096         
1 39075U 13005D   26169.81233935 -.00000110  00000+0 -36817-4 0  9993
2 39075  52.0046 194.6544 0000068 320.5178  39.5684 12.62265682617599
GLOBALSTAR M078         
1 39076U 13005E   26169.62699617 -.00000139  00000+0 -19546-3 0  9996
2 39076  51.9885 279.2262 0000515 234.3680 125.7138 12.62257758616195
GLOBALSTAR M095         
1 39077U 13005F   26169.57455536 -.00000082  00000+0  12244-3 0  9995
2 39077  52.0090 276.9921 0000207 131.3200 228.7685 12.62263467616043
GLOBALSTAR M087         
1 52888U 22064A   26169.98370778 -.00000085  00000+0  10461-3 0  9996
2 52888  52.0011  56.9832 0000786  42.2861 317.8066 12.62269124191365
